[Satellite]
VERSION=1.1
NAME=LEMUR-2-AUSTINTACIOUS
NICKNAME=LEMUR-2-AUSTINTACIOUS
TLE1=1 42068U 98067LD  17186.21238848  .00014164  00000-0  18571-3 0  9990
TLE2=2 42068  51.6399 305.9917 0007651   2.8121 357.2913 15.58818724 18752
